GLOBALSTAR M084         
1 38040U 11080A   26005.62893682 -.00000120  00000+0 -90898-4 0  9994
2 38040  52.0000 152.1682 0001241 105.5097 337.2980 12.62267058648238
GLOBALSTAR M080         
1 38041U 11080B   26005.66424226 -.00000118  00000+0 -81647-4 0  9992
2 38041  52.0045 153.7226 0000546 113.6179 259.5129 12.62265421648364
GLOBALSTAR M082         
1 38042U 11080C   26005.60050372 -.00000098  00000+0  31026-4 0  9996
2 38042  52.0075 109.4001 0000496 128.0283 245.0437 12.62266429649066
GLOBALSTAR M092         
1 38043U 11080D   26005.49587170 -.00000100  00000+0  22425-4 0  9992
2 38043  52.0060 200.1076 0001041  87.1584 289.9951 12.62269219647503
GLOBALSTAR M090         
1 38044U 11080E   26005.56762481 -.00000101  00000+0  18023-4 0  9991
2 38044  52.0125 103.4041 0000632 107.3920 355.0269 12.62265563649177
GLOBALSTAR M086         
1 38045U 11080F   26005.59211043 -.00000085  00000+0  10496-3 0  9994
2 38045  51.9899 103.5242 0001523  72.1209  32.7398 12.62281831649120
GLOBALSTAR M097         
1 39072U 13005A   26005.43907420 -.00000081  00000+0  12766-3 0  9996
2 39072  52.0070  18.7546 0000341  65.3568 294.7334 12.62268000596356
GLOBALSTAR M093         
1 39073U 13005B   26005.33374610 -.00000104  00000+0 -23868-5 0  9999
2 39073  52.0135  12.3617 0000444  26.0422 334.0467 12.62271330596293
